0 FENGYUN 1C DEB
1 30292U 99025ZD  13281.49453524  .00012258  00000-0  21727-2 0  5829
2 30292 098.6004 288.4523 0175386 260.3340 256.4945 14.57844847353160
0 FENGYUN 1C DEB
1 30292U 99025ZD  13282.52348266  .00022605  00000-0  39873-2 0  5839
2 30292 098.6006 289.5164 0175235 257.1262 256.7713 14.57910434353314
0 FENGYUN 1C DEB
1 30292U 99025ZD  13282.86057993  .00018261  00000-0  32242-2 0  5847
2 30292 098.6006 289.8651 0175306 256.0808 226.0328 14.57912610353366
0 FENGYUN 1C DEB
1 30292U 99025ZD  13283.72916948  .00016217  00000-0  28579-2 0  5855
2 30292 098.6053 290.7610 0175608 253.5407 104.6915 14.57927086353496
0 FENGYUN 1C DEB
1 30292U 99025ZD  13283.74014392  .00022631  00000-0  39893-2 0  5857
2 30292 098.6008 290.7748 0175300 253.3517 162.4735 14.57932081353490
0 FENGYUN 1C DEB
1 30292U 99025ZD  13285.99933007  .00016838  00000-0  29688-2 0  5874
2 30292 098.6000 293.1125 0175218 246.3428 140.3087 14.58001929353820
0 FENGYUN 1C DEB
1 30292U 99025ZD  13287.71970233  .00023451  00000-0  41219-2 0  5882
2 30292 098.5995 294.8918 0175196 241.0021 170.4349 14.58055495354076
0 FENGYUN 1C DEB
1 30292U 99025ZD  13288.49432132  .00026902  00000-0  47205-2 0  5895
2 30292 098.5994 295.6930 0175162 238.5952 276.4992 14.58098214354184
0 FENGYUN 1C DEB
1 30292U 99025ZD  13289.52336150  .00022476  00000-0  39453-2 0  5903
2 30292 098.5994 296.7581 0175061 235.3977 278.1924 14.58135453354336
0 FENGYUN 1C DEB
1 30292U 99025ZD  13289.98465164  .00022657  00000-0  39754-2 0  5917
2 30292 098.5991 297.2351 0175118 233.9908 179.6446 14.58145198354404
0 FENGYUN 1C DEB
1 30292U 99025ZD  13291.51356568  .00020067  00000-0  35190-2 0  5920
2 30292 098.5988 298.8169 0175067 229.2316 285.6476 14.58201929354628
0 FENGYUN 1C DEB
1 30292U 99025ZD  13293.00405579  .00017420  00000-0  30542-2 0  5939
2 30292 098.5990 300.3590 0175024 224.6206 190.1946 14.58248513354844
0 FENGYUN 1C DEB
1 30292U 99025ZD  13294.72130072  .00024180  00000-0  42265-2 0  5949
2 30292 098.5994 302.1356 0175026 219.3075 205.4282 14.58300057355098
0 FENGYUN 1C DEB
1 30292U 99025ZD  13295.49340674  .00023554  00000-0  41152-2 0  5954
2 30292 098.5996 302.9343 0175037 216.9455 298.9251 14.58324343355201
